$$SOE
2459580.500000000, A.D. 2022-Jan-01 00:00:00.0000, -4.139904248345979E+08, -7.523775213784872E+07, 8.354795733433906E+06,
2459587.500000000, A.D. 2022-Jan-08 00:00:00.0000, -4.115811876803534E+08, -8.520249949108708E+07, 7.843208607589751E+06,
2459594.500000000, A.D. 2022-Jan-15 00:00:00.0000, -4.089030564592110E+08, -9.511156223275103E+07, 7.326497499399628E+06,
2459601.500000000, A.D. 2022-Jan-22 00:00:00.0000, -4.059568251894799E+08, -1.049582448982350E+08, 6.804982629546814E+06,
2459608.500000000, A.D. 2022-Jan-29 00:00:00.0000, -4.027434257998388E+08, -1.147358314286464E+08, 6.278989048185311E+06,
2459615.500000000, A.D. 2022-Feb-05 00:00:00.0000, -3.992639325525731E+08, -1.244375870074278E+08, 5.748846793665953E+06,
2459622.500000000, A.D. 2022-Feb-12 00:00:00.0000, -3.955195643974414E+08, -1.340567610746913E+08, 5.214890764153071E+06,
2459629.500000000, A.D. 2022-Feb-19 00:00:00.0000, -3.915116865793379E+08, -1.435865891567290E+08, 4.677460616895288E+06,
2459636.500000000, A.D. 2022-Feb-26 00:00:00.0000, -3.872418128075908E+08, -1.530202942412324E+08, 4.136900755763233E+06,
2459643.500000000, A.D. 2022-Mar-05 00:00:00.0000, -3.827116078248600E+08, -1.623510883235551E+08, 3.593560341230586E+06,
2459650.500000000, A.D. 2022-Mar-12 00:00:00.0000, -3.779228901508524E+08, -1.715721741974165E+08, 3.047793296333775E+06,
2459657.500000000, A.D. 2022-Mar-19 00:00:00.0000, -3.728776349246636E+08, -1.806767474694756E+08, 2.499958303739123E+06,
2459664.500000000, A.D. 2022-Mar-26 00:00:00.0000, -3.675779768167684E+08, -1.896579988129779E+08, 1.950418790682584E+06,
2459671.500000000, A.D. 2022-Apr-02 00:00:00.0000, -3.620262129373510E+08, -1.985091165277841E+08, 1.399542890138760E+06,
2459678.500000000, A.D. 2022-Apr-09 00:00:00.0000, -3.562248054656606E+08, -2.072232894138841E+08, 8.477033526942581E+05,
2459685.500000000, A.D. 2022-Apr-16 00:00:00.0000, -3.501763836407177E+08, -2.157937093146387E+08, 2.952774288831502E+05,
2459692.500000000, A.D. 2022-Apr-23 00:00:00.0000, -3.438837463776175E+08, -2.242135722538731E+08, -2.573530738493353E+05,
2459699.500000000, A.D. 2022-Apr-30 00:00:00.0000, -3.373498673721882E+08, -2.324760804207754E+08, -8.098015723292679E+05,
2459706.500000000, A.D. 2022-May-07 00:00:00.0000, -3.305778996236085E+08, -2.405744469867761E+08, -1.361676770001888E+06,
2459713.500000000, A.D. 2022-May-14 00:00:00.0000, -3.235711779776166E+08, -2.485019007268167E+08, -1.912582880180344E+06,
2459720.500000000, A.D. 2022-May-21 00:00:00.0000, -3.163332217111915E+08, -2.562516896961528E+08, -2.462119762325674E+06,
2459727.500000000, A.D. 2022-May-28 00:00:00.0000, -3.088677376258650E+08, -2.638170849321690E+08, -3.009883006388262E+06,
2459734.500000000, A.D. 2022-Jun-04 00:00:00.0000, -3.011786233611391E+08, -2.711913845061325E+08, -3.555464017032921E+06,
2459741.500000000, A.D. 2022-Jun-11 00:00:00.0000, -2.932699707727246E+08, -2.783679179350695E+08, -4.098450111762017E+06,
2459748.500000000, A.D. 2022-Jun-18 00:00:00.0000, -2.851460693260221E+08, -2.853400509517217E+08, -4.638424636243165E+06,
2459755.500000000, A.D. 2022-Jun-25 00:00:00.0000, -2.768114094628851E+08, -2.921011906757650E+08, -5.174967103017390E+06,
2459762.500000000, A.D. 2022-Jul-02 00:00:00.0000, -2.682706857931584E+08, -2.986447912614673E+08, -5.707653372009769E+06,
2459769.500000000, A.D. 2022-Jul-09 00:00:00.0000, -2.595287997046492E+08, -3.049643598540176E+08, -6.236055894926548E+06,
2459776.500000000, A.D. 2022-Jul-16 00:00:00.0000, -2.505908614290942E+08, -3.110534617803739E+08, -6.759743930706903E+06,
2459783.500000000, A.D. 2022-Jul-23 00:00:00.0000, -2.414621937428086E+08, -3.169057249048269E+08, -7.278283524752870E+06,
2459790.500000000, A.D. 2022-Jul-30 00:00:00.0000, -2.321483371966462E+08, -3.225148465118796E+08, -7.791237534598291E+06,
2459797.500000000, A.D. 2022-Aug-06 00:00:00.0000, -2.226550532557104E+08, -3.278746020782144E+08, -8.298165980034307E+06,
2459804.500000000, A.D. 2022-Aug-13 00:00:00.0000, -2.129883261508774E+08, -3.329788531874218E+08, -8.798626417745218E+06,
2459811.500000000, A.D. 2022-Aug-20 00:00:00.0000, -2.031543649880836E+08, -3.378215550962850E+08, -9.292174238185525E+06,
2459818.500000000, A.D. 2022-Aug-27 00:00:00.0000, -1.931596060214109E+08, -3.423967646829438E+08, -9.778362950924426E+06,
2459825.500000000, A.D. 2022-Sep-03 00:00:00.0000, -1.830107148140965E+08, -3.466986488906064E+08, -1.025674449101213E+07,
2459832.500000000, A.D. 2022-Sep-10 00:00:00.0000, -1.727145881681935E+08, -3.507214936460063E+08, -1.072686955361204E+07,
2459839.500000000, A.D. 2022-Sep-17 00:00:00.0000, -1.622783557639017E+08, -3.544597132567183E+08, -1.118828796068758E+07,
2459846.500000000, A.D. 2022-Sep-24 00:00:00.0000, -1.517093814178315E+08, -3.579078603385587E+08, -1.164054907032342E+07,
2459853.500000000, A.D. 2022-Oct-01 00:00:00.0000, -1.410152636884739E+08, -3.610606362932951E+08, -1.208320225338465E+07,
2459860.500000000, A.D. 2022-Oct-08 00:00:00.0000, -1.302038353882952E+08, -3.639129018102285E+08, -1.251579743309610E+07,
2459867.500000000, A.D. 2022-Oct-15 00:00:00.0000, -1.192831628995560E+08, -3.664596861853344E+08, -1.293788550494958E+07,
2459874.500000000, A.D. 2022-Oct-22 00:00:00.0000, -1.082615474386913E+08, -3.686961971316296E+08, -1.334901857535213E+07,
2459881.500000000, A.D. 2022-Oct-29 00:00:00.0000, -9.714752573322518E+07, -3.706178336632147E+08, -1.374875046111512E+07,
2459888.500000000, A.D. 2022-Nov-05 00:00:00.0000, -8.594986797458637E+07, -3.722201993004702E+08, -1.413663741926683E+07,
2459895.500000000, A.D. 2022-Nov-12 00:00:00.0000, -7.467757497540736E+07, -3.734991143138009E+08, -1.451223882394613E+07,
2459902.500000000, A.D. 2022-Nov-19 00:00:00.0000, -6.333987521462575E+07, -3.744506279388773E+08, -1.487511780250156E+07,
2459909.500000000, A.D. 2022-Nov-26 00:00:00.0000, -5.194622147185260E+07, -3.750710309330212E+08, -1.522484188701719E+07,
2459916.500000000, A.D. 2022-Dec-03 00:00:00.0000, -4.050628684675573E+07, -3.753568684499069E+08, -1.556098369682312E+07,
2459923.500000000, A.D. 2022-Dec-10 00:00:00.0000, -2.902996007627090E+07, -3.753049531757465E+08, -1.588312165407509E+07,
2459930.500000000, A.D. 2022-Dec-17 00:00:00.0000, -1.752734008151208E+07, -3.749123787145523E+08, -1.619084073643807E+07,
2459937.500000000, A.D. 2022-Dec-24 00:00:00.0000, -6.008729594154352E+06, -3.741765332526472E+08, -1.648373328211986E+07,
2459944.500000000, A.D. 2022-Dec-31 00:00:00.0000, 5.515372530928219E+06, -3.730951133573729E+08, -1.676139987078997E+07,
2459951.500000000, A.D. 2023-Jan-07 00:00:00.0000, 1.703428047031289E+07, -3.716661369039989E+08, -1.702345021193136E+07,
2459958.500000000, A.D. 2023-Jan-14 00:00:00.0000, 2.853713011486848E+07, -3.698879545819234E+08, -1.726950381793600E+07,
2459965.500000000, A.D. 2023-Jan-21 00:00:00.0000, 4.001288666304437E+07, -3.677592630926394E+08, -1.749919066006663E+07,
2459972.500000000, A.D. 2023-Jan-28 00:00:00.0000, 5.145035481878473E+07, -3.652791201714219E+08, -1.771215215757298E+07,
2459979.500000000, A.D. 2023-Feb-04 00:00:00.0000, 6.283819140805286E+07, -3.624469583398176E+08, -1.790804223098990E+07,
2459986.500000000, A.D. 2023-Feb-11 00:00:00.0000, 7.416491863639706E+07, -3.592625975130408E+08, -1.808652826797295E+07,
2459993.500000000, A.D. 2023-Feb-18 00:00:00.0000, 8.541893793721753E+07, -3.557262572114503E+08, -1.824729206002884E+07,
2460000.500000000, A.D. 2023-Feb-25 00:00:00.0000, 9.658854468101539E+07, -3.518385684603111E+08, -1.839003074403590E+07,
2460007.500000000, A.D. 2023-Mar-04 00:00:00.0000, 1.076619438490245E+08, -3.476005852777737E+08, -1.851445775263739E+07,
2460014.500000000, A.D. 2023-Mar-11 00:00:00.0000, 1.186272666947890E+08, -3.430137956654861E+08, -1.862030377205904E+07,
2460021.500000000, A.D. 2023-Mar-18 00:00:00.0000, 1.294725884300522E+08, -3.380801320637959E+08, -1.870731771147136E+07,
2460028.500000000, A.D. 2023-Mar-25 00:00:00.0000, 1.401859471212351E+08, -3.328019812314081E+08, -1.877526770187300E+07,
2460035.500000000, A.D. 2023-Apr-01 00:00:00.0000, 1.507553641954975E+08, -3.271821930696799E+08, -1.882394212637396E+07,
2460042.500000000, A.D. 2023-Apr-08 00:00:00.0000, 1.611688659056498E+08, -3.212240870796484E+08, -1.885315052008383E+07,
2460049.500000000, A.D. 2023-Apr-15 00:00:00.0000, 1.714145033717516E+08, -3.149314574687175E+08, -1.886272421019392E+07,
2460056.500000000, A.D. 2023-Apr-22 00:00:00.0000, 1.814803729554078E+08, -3.083085798680890E+08, -1.885251710611743E+07,
2460063.500000000, A.D. 2023-Apr-29 00:00:00.0000, 1.913546396420141E+08, -3.013602173210219E+08, -1.882240670097201E+07,
2460070.500000000, A.D. 2023-May-06 00:00:00.0000, 2.010255616020991E+08, -2.940916236793991E+08, -1.877229497182998E+07,
2460077.500000000, A.D. 2023-May-13 00:00:00.0000, 2.104815148763947E+08, -2.865085452244435E+08, -1.870210915652746E+07,
2460084.500000000, A.D. 2023-May-20 00:00:00.0000, 2.197110183311959E+08, -2.786172209291847E+08, -1.861180246304624E+07,
2460091.500000000, A.D. 2023-May-27 00:00:00.0000, 2.287027589815077E+08, -2.704243813245914E+08, -1.850135472610420E+07,
2460098.500000000, A.D. 2023-Jun-03 00:00:00.0000, 2.374456176351519E+08, -2.619372458830813E+08, -1.837077300871313E+07,
2460105.500000000, A.D. 2023-Jun-10 00:00:00.0000, 2.459286947685771E+08, -2.531635188803581E+08, -1.822009214679015E+07,
2460112.500000000, A.D. 2023-Jun-17 00:00:00.0000, 2.541413366029567E+08, -2.441113837499847E+08, -1.804937524493386E+07,
2460119.500000000, A.D. 2023-Jun-24 00:00:00.0000, 2.620731615762246E+08, -2.347894958383873E+08, -1.785871414346206E+07,
2460126.500000000, A.D. 2023-Jul-01 00:00:00.0000, 2.697140873377463E+08, -2.252069727093532E+08, -1.764822980776288E+07,
2460133.500000000, A.D. 2023-Jul-08 00:00:00.0000, 2.770543564600049E+08, -2.153733811680529E+08, -1.741807241508788E+07,
2460140.500000000, A.D. 2023-Jul-15 00:00:00.0000, 2.840845594516710E+08, -2.052987238362634E+08, -1.716842124929109E+07,
$$EOE